{"type":"FeatureCollection","features":[{"type":"Feature","properties":{"Resource":"You Are Here","Company Name":"Dallas Makerspace","Street Address":"1825 Monetary Ln","City":"Carrollton","ZIP":75006,"Phone":"","":"1825 Monetary Ln, Carrollton, TX 75006"},"geometry":{"type":"Point","coordinates":[-96.90738,32.941005]}},{"type":"Feature","properties":{"Resource":"Metals","Company Name":"SB Specialty Metals","Street Address":"1101 Ave. H East","City":"Arlington","ZIP":76011,"Phone":"817-649-2800","":"1101 Ave. H East, Arlington, TX 76011"},"geometry":{"type":"Point","coordinates":[-97.047787,32.76213]}},{"type":"Feature","properties":{"Resource":"Metals","Company Name":"Garland Steel","Street Address":"312 South International Rd","City":"Garland","ZIP":75042,"Phone":"972-494-6000","":"312 South International Rd, Garland, TX 75042"},"geometry":{"type":"Point","coordinates":[-96.672787,32.910994]}},{"type":"Feature","properties":{"Resource":"Metals","Company Name":"Wylie Steel","Street Address":"2001 Texas 78","City":"Wylie","ZIP":75098,"Phone":"972-442-2568","":"2001 Texas 78, Wylie, TX 75098"},"geometry":{"type":"Point","coordinates":[-96.514656,33.022365]}},{"type":"Feature","properties":{"Resource":"Metals","Company Name":"Metals4U","Street Address":"1240 Majesty Dr","City":"Dallas","ZIP":75247,"Phone":"214-231-1434","":"1240 Majesty Dr, Dallas, TX 75247"},"geometry":{"type":"Point","coordinates":[-96.877682,32.825629]}},{"type":"Feature","properties":{"Resource":"Metals","Company Name":"Metals Supermarket","Street Address":"1401 Summit Ave. #7","City":"Plano","ZIP":75074,"Phone":"972-422-5167","":"1401 Summit Ave. #7, Plano, TX 75074"},"geometry":{"type":"Point","coordinates":[-96.687699,33.009473]}},{"type":"Feature","properties":{"Resource":"Metals","Company Name":"Metals Supermarket","Street Address":"1216 Dolton Dr. #101","City":"Dallas","ZIP":75207,"Phone":"972-445-2008","":"1216 Dolton Dr. #101, Dallas, TX 75207"},"geometry":{"type":"Point","coordinates":[-96.844688,32.805381]}},{"type":"Feature","properties":{"Resource":"Metals","Company Name":"Online Metals†","Street Address":"3001 Alouette Dr Ste 100","City":"Grand Prairie","ZIP":75052,"Phone":"800-704-2157","":"3001 Alouette Dr Ste 100, Grand Prairie, TX 75052"},"geometry":{"type":"Point","coordinates":[-97.0573,32.702979]}},{"type":"Feature","properties":{"Resource":"Metals","Company Name":"Trident","Street Address":"405 N Plano Rd","City":"Richardson","ZIP":75081,"Phone":"972-231-5176","":"405 N Plano Rd, Richardson, TX 75081"},"geometry":{"type":"Point","coordinates":[-96.700075,32.953256]}},{"type":"Feature","properties":{"Resource":"Wood","Company Name":"Woodcraft","Street Address":"601 W Plano Pkwy","City":"Plano","ZIP":75075,"Phone":"972-422-2732","":"601 W Plano Pkwy, Plano, TX 75075"},"geometry":{"type":"Point","coordinates":[-96.707652,33.009207]}},{"type":"Feature","properties":{"Resource":"Wood","Company Name":"Plywood Company","Street Address":"4301 N Sylvania Av","City":"Fort Worth","ZIP":76137,"Phone":"817-831-4206","":"4301 N Sylvania Av, Fort Worth, TX 76137"},"geometry":{"type":"Point","coordinates":[-97.308465,32.819139]}},{"type":"Feature","properties":{"Resource":"Wood","Company Name":"Rockler","Street Address":"800 N Coit #2500","City":"Richardson","ZIP":75080,"Phone":"972-613-8848","":"800 N Coit #2500, Richardson, TX 75080"},"geometry":{"type":"Point","coordinates":[-96.768878,32.958824]}},{"type":"Feature","properties":{"Resource":"Wood","Company Name":"Wood World","Street Address":"13650 TI Blvd #101","City":"Dallas","ZIP":75243,"Phone":"972-669-9130","":"13650 TI Blvd #101, Dallas, TX 75243"},"geometry":{"type":"Point","coordinates":[-96.748327,32.933276]}},{"type":"Feature","properties":{"Resource":"Wood","Company Name":"Central Hardwoods","Street Address":"1959 W Northwest Hwy","City":"Dallas","ZIP":75220,"Phone":"972-241-3571","":"1959 W Northwest Hwy, Dallas, TX 75220"},"geometry":{"type":"Point","coordinates":[-96.909929,32.867816]}},{"type":"Feature","properties":{"Resource":"Wood","Company Name":"Hardwood Lumber Company of Dallas","Street Address":"10551 Goodnight Ln","City":"Dallas","ZIP":75220,"Phone":"972-869-1230","":"10551 Goodnight Ln, Dallas, TX 75220"},"geometry":{"type":"Point","coordinates":[-96.902453,32.871749]}},{"type":"Feature","properties":{"Resource":"Wood","Company Name":"Woods of Mission Timber","Street Address":"4203 FM 455 West","City":"Sanger","ZIP":76266,"Phone":"940-458-4750","":"4203 FM 455 West, Sanger, TX 76266"},"geometry":{"type":"Point","coordinates":[-97.200335,33.366964]}},{"type":"Feature","properties":{"Resource":"Wood","Company Name":"McKinney Hardwood Lumber","Street Address":"13985 Red Wood Circle South","City":"McKinney","ZIP":75071,"Phone":"972-658-2130","":"13985 Red Wood Circle South, McKinney, TX 75071"},"geometry":{"type":"Point","coordinates":[-96.75344,33.212223]}},{"type":"Feature","properties":{"Resource":"Electronics","Company Name":"Tanner Electronics","Street Address":"1100 Valwood Pkwy #100","City":"Carrollton","ZIP":75006,"Phone":"972-242-8702","":"1100 Valwood Pkwy #100, Carrollton, TX 75006"},"geometry":{"type":"Point","coordinates":[-96.919292,32.938437]}},{"type":"Feature","properties":{"Resource":"Electronics","Company Name":"Micro Center","Street Address":"13929 N. Central Expwy","City":"Dallas","ZIP":75243,"Phone":"972-664-8500","":"13929 N. Central Expwy, Dallas, TX 75243"},"geometry":{"type":"Point","coordinates":[-96.750197,32.937412]}},{"type":"Feature","properties":{"Resource":"Electronics","Company Name":"Fry's Electronics*","Street Address":"2488 Market Place Blvd","City":"Irving","ZIP":75063,"Phone":"214-242-4900","":"2488 Market Place Blvd, Irving, TX 75063"},"geometry":{"type":"Point","coordinates":[-96.97736,32.922675]}},{"type":"Feature","properties":{"Resource":"Electronics","Company Name":"Ham Radio Outlet","Street Address":"701 E Plano Pkwy #406","City":"Plano","ZIP":75074,"Phone":"972-424-6419","":"701 E Plano Pkwy #406, Plano, TX 75074"},"geometry":{"type":"Point","coordinates":[-96.705058,33.008223]}},{"type":"Feature","properties":{"Resource":"Electronics","Company Name":"Electronic Discount Sales","Street Address":"908 E Pioneer Pkwy","City":"Arlington","ZIP":76010,"Phone":"817-548-1992","":"908 E Pioneer Pkwy, Arlington, TX 76010"},"geometry":{"type":"Point","coordinates":[-97.063469,32.712212]}},{"type":"Feature","properties":{"Resource":"Electronics","Company Name":"Allied Electronics†","Street Address":"7151 Jack Newell Blvd S","City":"Fort Worth","ZIP":76118,"Phone":"866-433-5722","":"7151 Jack Newell Blvd S, Fort Worth, TX 76118"},"geometry":{"type":"Point","coordinates":[-97.221316,32.784968]}},{"type":"Feature","properties":{"Resource":"Electronics","Company Name":"Mouser Electronics†","Street Address":"1000 N Main St","City":"Mansfield","ZIP":76063,"Phone":"817-804-3800","":"1000 N Main St, Mansfield, TX 76063"},"geometry":{"type":"Point","coordinates":[-97.143054,32.57158]}},{"type":"Feature","properties":{"Resource":"Electronics","Company Name":"Altex","Street Address":"3215 Belmeade","City":"Carrollton","ZIP":75006,"Phone":"972-267-8882","":"3215 Belmeade, Carrollton, TX 75006"},"geometry":{"type":"Point","coordinates":[-96.855716,32.980629]}},{"type":"Feature","properties":{"Resource":"Electronics","Company Name":"BG Micro†","Street Address":"3024 Lincoln Ct","City":"Garland","ZIP":75041,"Phone":"972-278-5015","":"3024 Lincoln Ct, Garland, TX 75041"},"geometry":{"type":"Point","coordinates":[-96.680312,32.880067]}},{"type":"Feature","properties":{"Resource":"Hardware Store","Company Name":"Turner Hardware","Street Address":"12895 Josey Ln #140","City":"Farmers Branch","ZIP":75234,"Phone":"972-243-4329","":"12895 Josey Ln #140, Farmers Branch, TX 75234"},"geometry":{"type":"Point","coordinates":[-96.881847,32.920902]}},{"type":"Feature","properties":{"Resource":"Hardware Store","Company Name":"Lowe's*","Street Address":"1253 E Trinity Mills Rd","City":"Carrollton","ZIP":75006,"Phone":"972-446-0066","":"1253 E Trinity Mills Rd, Carrollton, TX 75006"},"geometry":{"type":"Point","coordinates":[-96.842078,32.987333]}},{"type":"Feature","properties":{"Resource":"Hardware Store","Company Name":"Home Depot*","Street Address":"11468 Grissom Ln","City":"Dallas","ZIP":75229,"Phone":"972-506-3006","":"11468 Grissom Ln, Dallas, TX 75229"},"geometry":{"type":"Point","coordinates":[-96.886495,32.908015]}},{"type":"Feature","properties":{"Resource":"Hardware Store","Company Name":"Harbor Freight*","Street Address":"3050 N Josey Ln #106","City":"Carrollton","ZIP":75007,"Phone":"972-394-1276","":"3050 N Josey Ln #106, Carrollton, TX 75007"},"geometry":{"type":"Point","coordinates":[-96.887443,32.996282]}},{"type":"Feature","properties":{"Resource":"Hardware Store","Company Name":"Northern Tool & Equipment*","Street Address":"1329 Stemmons Fwy","City":"Lewisville","ZIP":75007,"Phone":"972-906-7105","":"1329 Stemmons Fwy, Lewisville, TX 75007"},"geometry":{"type":"Point","coordinates":[-96.934079,32.98574]}},{"type":"Feature","properties":{"Resource":"Hardware Store","Company Name":"CDC Products","Street Address":"940 E Belt Line Rd","City":"Richardson","ZIP":75081,"Phone":"972-918-9886","":"940 E Belt Line Rd, Richardson, TX 75081"},"geometry":{"type":"Point","coordinates":[-96.712121,32.947661]}},{"type":"Feature","properties":{"Resource":"Hardware Store","Company Name":"Metric Multistandard","Street Address":"2200 Century Cir","City":"Irving","ZIP":75062,"Phone":"972-870-1017","":"2200 Century Cir, Irving, TX 75062"},"geometry":{"type":"Point","coordinates":[-96.897668,32.838423]}},{"type":"Feature","properties":{"Resource":"Plastics","Company Name":"Allied Plastics","Street Address":"1544 Valwood Pkwy","City":"Carrollton","ZIP":75006,"Phone":"972-241-0762","":"1544 Valwood Pkwy, Carrollton, TX 75006"},"geometry":{"type":"Point","coordinates":[-96.921528,32.938048]}},{"type":"Feature","properties":{"Resource":"Plastics","Company Name":"Allied Plastics","Street Address":"10828 Shady Trail","City":"Dallas","ZIP":75220,"Phone":"214-350-3990","":"10828 Shady Trail, Dallas, TX 75220"},"geometry":{"type":"Point","coordinates":[-96.890162,32.875498]}},{"type":"Feature","properties":{"Resource":"Plastics","Company Name":"Johnson Plastics","Street Address":"2707 Realty Rd #300","City":"Carrollton","ZIP":75006,"Phone":"800-869-7830","":"2707 Realty Rd #300, Carrollton, TX 75006"},"geometry":{"type":"Point","coordinates":[-96.860043,32.956426]}},{"type":"Feature","properties":{"Resource":"Plastics","Company Name":"Regal Plastics","Street Address":"9200 Royal Ln","City":"Irving","ZIP":75063,"Phone":"972-484-0741","":"9200 Royal Ln, Irving, TX 75063"},"geometry":{"type":"Point","coordinates":[-97.019748,32.933735]}},{"type":"Feature","properties":{"Resource":"Art Supplies","Company Name":"Asel*","Street Address":"2701 Cedar Springs Rd","City":"Dallas","ZIP":75201,"Phone":"214-871-2425","":"2701 Cedar Springs Rd, Dallas, TX 75201"},"geometry":{"type":"Point","coordinates":[-96.805712,32.800714]}},{"type":"Feature","properties":{"Resource":"Art Supplies","Company Name":"Hobby Lobby*","Street Address":"2325 S Interstate 35E Ste 400B","City":"Lewisville","ZIP":75067,"Phone":"972-459-6706","":"2325 S Interstate 35E Ste 400B, Lewisville, TX 75067"},"geometry":{"type":"Point","coordinates":[-96.974896,33.007879]}},{"type":"Feature","properties":{"Resource":"Art Supplies","Company Name":"Michael's*","Street Address":"7635 N MacArthur Blvd","City":"Irving","ZIP":75063,"Phone":"972-501-0525","":"7635 N MacArthur Blvd, Irving, TX 75063"},"geometry":{"type":"Point","coordinates":[-96.958916,32.907897]}},{"type":"Feature","properties":{"Resource":"Ceramics/Glass","Company Name":"Trinity Ceramic Supply","Street Address":"9016 Diplomacy Row","City":"Dallas","ZIP":75247,"Phone":"214-631-0540","":"9016 Diplomacy Row, Dallas, TX 75247"},"geometry":{"type":"Point","coordinates":[-96.891486,32.816933]}},{"type":"Feature","properties":{"Resource":"Ceramics/Glass","Company Name":"Reynolds Advanced Materials","Street Address":"13700 Diplomat Dr","City":"Farmers Branch","ZIP":75234,"Phone":"800-421-4378","":"13700 Diplomat Dr, Farmers Branch, TX 75234"},"geometry":{"type":"Point","coordinates":[-96.906546,32.93496]}},{"type":"Feature","properties":{"Resource":"Hobby Shop","Company Name":"Hobby Town USA*","Street Address":"500 E Round Grove Rd","City":"Lewisville","ZIP":75067,"Phone":"972-315-3700","":"500 E Round Grove Rd, Lewisville, TX 75067"},"geometry":{"type":"Point","coordinates":[-96.977982,33.004529]}},{"type":"Feature","properties":{"Resource":"Bio/Brewing","Company Name":"Homebrew Headquarters","Street Address":"300 N Coit Rd Ste 134","City":"Richardson","ZIP":75080,"Phone":"972-234-4411","":"300 N Coit Rd Ste 134, Richardson, TX 75080"},"geometry":{"type":"Point","coordinates":[-96.768879,32.954628]}},{"type":"Feature","properties":{"Resource":"Bio/Brewing","Company Name":"Dallas Homebrew + Fine Vine Wines","Street Address":"1500 Interstate 35E #116","City":"Carrollton","ZIP":75006,"Phone":"972-323-7921","":"1500 Interstate 35E #116, Carrollton, TX 75006"},"geometry":{"type":"Point","coordinates":[-96.905871,32.946861]}},{"type":"Feature","properties":{"Resource":"Fabrics","Company Name":"Golden D'or Fabric Outlet","Street Address":"10795 Harry Hines Blvd","City":"Dallas","ZIP":75220,"Phone":"214-351-2339","":"10795 Harry Hines Blvd, Dallas, TX 75220"},"geometry":{"type":"Point","coordinates":[-96.884236,32.875089]}},{"type":"Feature","properties":{"Resource":"Fabrics","Company Name":"Best Fabrics","Street Address":"10850 Harry Hines Blvd","City":"Dallas","ZIP":75220,"Phone":"214-350-2583","":"10850 Harry Hines Blvd, Dallas, TX 75220"},"geometry":{"type":"Point","coordinates":[-96.884283,32.876805]}},{"type":"Feature","properties":{"Resource":"Fabrics","Company Name":"T-Shirt Outlet","Street Address":"14015 N Interstate 35E Ste A","City":"Farmers Branch","ZIP":75234,"Phone":"972-241-7030","":"14015 N Interstate 35E Ste A, Farmers Branch, TX 75234"},"geometry":{"type":"Point","coordinates":[-96.901998,32.93832]}},{"type":"Feature","properties":{"Resource":"Welding","Company Name":"Garland Welding Supply","Street Address":"1960 Forest Ln","City":"Garland","ZIP":75042,"Phone":"972-487-8000","":"1960 Forest Ln, Garland, TX 75042"},"geometry":{"type":"Point","coordinates":[-96.65641,32.908837]}},{"type":"Feature","properties":{"Resource":"Gases","Company Name":"Airgas","Street Address":"2615 Joe Field Rd","City":"Dallas","ZIP":75229,"Phone":"972-436-6586","":"2615 Joe Field Rd, Dallas, TX 75229"},"geometry":{"type":"Point","coordinates":[-96.889359,32.892892]}},{"type":"Feature","properties":{"Resource":"Gases","Company Name":"Northwest Propane","Street Address":"1515 W Belt Line Rd","City":"Carrollton","ZIP":75006,"Phone":"800-274-6121","":"1515 W Belt Line Rd, Carrollton, TX 75006"},"geometry":{"type":"Point","coordinates":[-96.916775,32.952342]}},{"type":"Feature","properties":{"Resource":"Gases","Company Name":"U-Haul","Street Address":"1682 S Interstate 35E","City":"Carrollton","ZIP":75006,"Phone":"972-242-5179","":"1682 S Interstate 35E, Carrollton, TX 75006"},"geometry":{"type":"Point","coordinates":[-96.905871,32.946861]}},{"type":"Feature","properties":{"Resource":"Hardware Store","Company Name":"Elliott's Hardware*","Street Address":"5439 Denton Dr","City":"Dallas","ZIP":75235,"Phone":"214-634-9900","":"5439 Denton Dr, Dallas, TX 75235"},"geometry":{"type":"Point","coordinates":[-96.830864,32.820835]}},{"type":"Feature","properties":{"Resource":"Wood","Company Name":"Cedar Supply","Street Address":"1200 N Denton Dr","City":"Carrollton","ZIP":75006,"Phone":"972-242-6561","":"1200 N Denton Dr, Carrollton, TX 75006"},"geometry":{"type":"Point","coordinates":[-96.90641,32.956909]}},{"type":"Feature","properties":{"Resource":"Ceramics/Glass","Company Name":"Art Glass City†","Street Address":"420 E Round Grove Rd","City":"Lewisville","ZIP":75067,"Phone":"214-488-9412","":"420 E Round Grove Rd, Lewisville, TX 75067"},"geometry":{"type":"Point","coordinates":[-96.971717,33.007392]}},{"type":"Feature","properties":{"Resource":"Hardware Store","Company Name":"Sutherlands Home Base†","Street Address":"7909 Camp Bowie W Blvd","City":"Benbrook","ZIP":76116,"Phone":"817-244-8140","":"7909 Camp Bowie W Blvd, Benbrook, TX 76116"},"geometry":{"type":"Point","coordinates":[-97.4521007,32.7230633]}},{"type":"Feature","properties":{"Resource":"Hardware Store","Company Name":"Grainger†","Street Address":"1305 N Interstate  35E","City":"Carrollton","ZIP":75006,"Phone":"800-687-6807","":"1305 N Interstate  35E, Carrollton, TX 75006"},"geometry":{"type":"Point","coordinates":[-96.8972931,32.9622192]}},{"type":"Feature","properties":{"Resource":"Leather","Company Name":"Tandy Leather Factory*","Street Address":"2000 Esters Rd","City":"Irving","ZIP":75061,"Phone":"888-231-0007","":"2000 Esters Rd, Irving, TX 75061"},"geometry":{"type":"Point","coordinates":[-97.009455,32.833415]}},{"type":"Feature","properties":{"Resource":"Wood","Company Name":"84 Lumber*","Street Address":"2906 W Miller Rd","City":"Garland","ZIP":75040,"Phone":"972-864-8411","":"2906 W Miller Rd, Garland, TX 75040"},"geometry":{"type":"Point","coordinates":[-96.6726456,32.89328]}},{"type":"Feature","properties":{"Resource":"Junkyard","Company Name":"Pick-N-Pull*","Street Address":"5301 S 2nd Ave","City":"Dallas","ZIP":75210,"Phone":"214-421-9193","":"5301 S 2nd Ave, Dallas, TX 75210"},"geometry":{"type":"Point","coordinates":[-96.741778,32.758511]}},{"type":"Feature","properties":{"Resource":"Junkyard","Company Name":"Awesome Auto Salvage","Street Address":"3913 Jefferson St","City":"Grand Prairie","ZIP":75051,"Phone":"972-263-1991","":"3913 Jefferson St, Grand Prairie, TX 75051"},"geometry":{"type":"Point","coordinates":[-96.945625,32.746028]}},{"type":"Feature","properties":{"Resource":"Junkyard","Company Name":"DFW Auto Salvage","Street Address":"6071 W Davis St","City":"Grand Prairie","ZIP":75211,"Phone":"214-339-1345","":"6071 W Davis St, Grand Prairie, TX 75211"},"geometry":{"type":"Point","coordinates":[-96.925033,32.75027]}}]}